QIANFAN-25              
1 61558U 24185G   25275.97432178  .00000743  00000+0  44622-3 0  9991
2 61558  88.9744  86.1971 0009569 155.5114 204.6525 14.05808701 59563
QIANFAN-26              
1 61559U 24185H   25275.93947514  .00000559  00000+0  54684-3 0  9997
2 61559  88.9746  87.3923 0004507 208.6507 151.4412 13.77753340 58928
QIANFAN-27              
1 61560U 24185J   25275.93856179  .00001514  00000+0  61434-3 0  9998
2 61560  88.9744  85.2441 0008966 148.5298 211.6434 14.27197300 60067
QIANFAN-28              
1 61561U 24185K   25275.95333838  .00001935  00000+0  77740-3 0  9997
2 61561  88.9759  85.2402 0008104 147.4749 212.6947 14.27811178 60071
QIANFAN-29              
1 61562U 24185L   25275.93414693  .00000325  00000+0  48446-3 0  9998
2 61562  88.9722  88.6277 0008368 253.4932 106.5300 13.50974744 58236
QIANFAN-30              
1 61563U 24185M   25275.92954175  .00000324  00000+0  49080-3 0  9996
2 61563  88.9743  88.1262 0006035 232.3409 127.7195 13.49952382 58513
QIANFAN-31              
1 61564U 24185N   25275.94508142  .00000352  00000+0  47099-3 0  9997
2 61564  88.9727  88.0387 0005690 227.5826 132.4848 13.57925047 58557
QIANFAN-32              
1 61565U 24185P   25275.93720238  .00000321  00000+0  48096-3 0  9993
2 61565  88.9785  88.2383 0007523 266.3339  93.6952 13.50704133 58487
